NORAD_CAT_ID,OBJECT_NAME,OBJECT_TYPE,EPOCH,MEAN_MOTION,ECCENTRICITY,INCLINATION,RA_OF_ASC_NODE,ARG_OF_PERICENTER,MEAN_ANOMALY,BSTAR,MEAN_MOTION_DOT,MEAN_MOTION_DDOT,TLE_LINE0,TLE_LINE1,TLE_LINE2,SEMIMAJOR_AXIS,PERIOD,APOGEE,PERIGEE,DECAYED
51120.0,STARLINK-3398,PAYLOAD,2024-07-21 21:25:24,15.08839185,0.000131,53.2161,83.7677,90.7661,269.3481,0.00015143,2.123e-05,0.0,0 STARLINK-3398,1 51120U 22005S   24203.89264604  .00002123  00000-0  15143-3 0  9993,2 51120  53.2161  83.7677 0001310  90.7661 269.3481 15.08839185140041,6917.883,95.438,540.654,538.842,0.0
51120.0,STARLINK-3398,PAYLOAD,2024-07-21 23:00:47,15.08839209,0.0001283,53.2156,83.4722,91.8384,268.2755,8.92e-05,1.132e-05,0.0,0 STARLINK-3398,1 51120U 22005S   24203.95888611  .00001132  00000-0  89200-4 0  9995,2 51120  53.2156  83.4722 0001283  91.8384 268.2755 15.08839209138941,6917.883,95.438,540.635,538.86,0.0
51120.0,STARLINK-3398,PAYLOAD,2024-07-23 08:23:52,15.08853733,0.0001194,53.2144,77.2252,87.8827,272.2301,0.00029202,4.364e-05,0.0,0 STARLINK-3398,1 51120U 22005S   24205.34991722  .00004364  00000-0  29202-3 0  9993,2 51120  53.2144  77.2252 0001194  87.8827 272.2301 15.08853733140263,6917.838,95.437,540.529,538.877,0.0
51120.0,STARLINK-3398,PAYLOAD,2024-07-23 14:45:26,15.08849762,0.0002861,53.2161,76.0413,92.7632,267.3688,0.00030762,4.612e-05,0.0,0 STARLINK-3398,1 51120U 22005S   24205.61488465  .00004612  00000-0  30762-3 0  9997,2 51120  53.2161  76.0413 0002861  92.7632 267.3688 15.08849762139199,6917.851,95.437,541.695,537.736,0.0
51120.0,STARLINK-3398,PAYLOAD,2024-07-23 16:20:48,15.08836299,0.0002211,53.2172,75.7403,126.7014,233.4182,-0.00079241,-0.00012876,0.0,0 STARLINK-3398,1 51120U 22005S   24205.68111704 -.00012876  00000-0 -79241-3 0  9991,2 51120  53.2172  75.7403 0002211 126.7014 233.4182 15.08836299140317,6917.892,95.438,541.286,538.227,0.0
51120.0,STARLINK-3398,PAYLOAD,2024-07-23 22:42:21,15.08828395,0.0001749,53.2177,74.5514,112.0206,248.0972,-5.8164e-05,-1.213e-05,0.0,0 STARLINK-3398,1 51120U 22005S   24205.94608644 -.00001213  00000-0 -58164-4 0  9999,2 51120  53.2177  74.5514 0001749 112.0206 248.0972 15.08828395139245,6917.916,95.438,540.991,538.571,0.0
51120.0,STARLINK-3398,PAYLOAD,2024-07-24 00:17:45,15.0882796,0.0001944,53.2178,74.2542,121.5893,238.529,-6.4442e-05,-1.313e-05,0.0,0 STARLINK-3398,1 51120U 22005S   24206.01232719 -.00001313  00000-0 -64442-4 0  9991,2 51120  53.2178  74.2542 0001944 121.5893 238.5290 15.08827960139253,6917.917,95.438,541.127,538.437,0.0
51120.0,STARLINK-3398,PAYLOAD,2024-07-24 22:33:09,15.08833873,0.0001409,53.2168,70.0907,108.341,251.7735,0.00043344,6.616e-05,0.0,0 STARLINK-3398,1 51120U 22005S   24206.93969049  .00006616  00000-0  43344-3 0  9991,2 51120  53.2168  70.0907 0001409 108.3410 251.7735 15.08833873139391,6917.899,95.438,540.739,538.789,0.0
51120.0,STARLINK-3398,PAYLOAD,2024-07-25 22:23:54,15.08860285,0.0001182,53.2149,65.6272,110.6817,249.4301,0.00046377,7.105e-05,0.0,0 STARLINK-3398,1 51120U 22005S   24207.93327490  .00007105  00000-0  46377-3 0  9993,2 51120  53.2149  65.6272 0001182 110.6817 249.4301 15.08860285139547,6917.818,95.436,540.501,538.866,0.0
51120.0,STARLINK-3398,PAYLOAD,2024-07-25 23:59:18,15.08863974,0.0001186,53.2147,65.33,110.0356,250.0764,0.0005148,7.92e-05,0.0,0 STARLINK-3398,1 51120U 22005S   24207.99951427  .00007920  00000-0  51480-3 0  9998,2 51120  53.2147  65.3300 0001186 110.0356 250.0764 15.08863974140664,6917.807,95.436,540.493,538.852,0.0
51120.0,STARLINK-3398,PAYLOAD,2024-07-26 14:17:45,15.08857951,0.0001121,53.2153,62.65,109.0052,251.1062,-5.4164e-06,-3.74e-06,0.0,0 STARLINK-3398,1 51120U 22005S   24208.59566958 -.00000374  00000-0 -54164-5 0  9998,2 51120  53.2153  62.6500 0001121 109.0052 251.1062 15.08857951139640,6917.826,95.436,540.466,538.915,0.0
51120.0,STARLINK-3398,PAYLOAD,2024-07-26 20:39:18,15.08840824,0.0001007,53.2163,61.4642,81.632,278.4786,-0.00028303,-4.789e-05,0.0,0 STARLINK-3398,1 51120U 22005S   24208.86063511 -.00004789  00000-0 -28303-3 0  9993,2 51120  53.2163  61.4642 0001007  81.6320 278.4786 15.08840824140795,6917.878,95.438,540.44,539.046,0.0
51120.0,STARLINK-3398,PAYLOAD,2024-07-26 22:14:42,15.08841611,0.000123,53.2158,61.1672,80.7696,279.3436,-0.0002468,-4.214e-05,0.0,0 STARLINK-3398,1 51120U 22005S   24208.92687511 -.00004214  00000-0 -24680-3 0  9999,2 51120  53.2158  61.1672 0001230  80.7696 279.3436 15.08841611139697,6917.875,95.437,540.591,538.89,0.0
51120.0,STARLINK-3398,PAYLOAD,2024-07-27 20:30:06,15.08828214,0.0001235,53.2165,57.0049,76.1384,283.9746,-0.00016143,-2.855e-05,0.0,0 STARLINK-3398,1 51120U 22005S   24209.85424660 -.00002855  00000-0 -16143-3 0  9990,2 51120  53.2165  57.0049 0001235  76.1384 283.9746 15.08828214139830,6917.916,95.438,540.636,538.927,0.0
51120.0,STARLINK-3398,PAYLOAD,2024-07-27 23:40:53,15.08829948,0.0001241,53.2175,56.4076,81.6939,278.4194,-0.00010987,-2.035e-05,0.0,0 STARLINK-3398,1 51120U 22005S   24209.98672793 -.00002035  00000-0 -10987-3 0  9996,2 51120  53.2175  56.4076 0001241  81.6939 278.4194 15.08829948140965,6917.911,95.438,540.635,538.918,0.0
51120.0,STARLINK-3398,PAYLOAD,2024-07-28 18:45:31,15.08829644,0.0001205,53.2175,52.841,78.9532,281.1596,0.00012946,1.773e-05,0.0,0 STARLINK-3398,1 51120U 22005S   24210.78161124  .00001773  00000-0  12946-3 0  9990,2 51120  53.2175  52.8410 0001205  78.9532 281.1596 15.08829644139974,6917.912,95.438,540.611,538.943,0.0
51120.0,STARLINK-3398,PAYLOAD,2024-07-29 13:50:08,15.08835868,0.0001031,53.2169,49.2736,95.2577,264.8533,0.00020754,3.016e-05,0.0,0 STARLINK-3398,1 51120U 22005S   24211.57649092  .00003016  00000-0  20754-3 0  9991,2 51120  53.2169  49.2736 0001031  95.2577 264.8533 15.08835868140095,6917.893,95.438,540.471,539.045,0.0
51120.0,STARLINK-3398,PAYLOAD,2024-07-29 20:11:41,15.08837435,0.0001046,53.217,48.0841,95.1051,265.0061,0.00021881,3.196e-05,0.0,0 STARLINK-3398,1 51120U 22005S   24211.84145232  .00003196  00000-0  21881-3 0  9999,2 51120  53.2170  48.0841 0001046  95.1051 265.0061 15.08837435141242,6917.888,95.438,540.477,539.03,0.0
51120.0,STARLINK-3398,PAYLOAD,2024-07-30 12:05:32,15.08842477,0.0001196,53.218,45.1123,101.3787,258.7339,0.00018456,2.651e-05,0.0,0 STARLINK-3398,1 51120U 22005S   24212.50385227  .00002651  00000-0  18456-3 0  9992,2 51120  53.2180  45.1123 0001196 101.3787 258.7339 15.08842477140233,6917.873,95.437,540.565,538.91,0.0
51120.0,STARLINK-3398,PAYLOAD,2024-07-30 20:02:28,15.08841776,0.0001069,53.2172,43.6237,94.2258,265.8857,0.00011493,1.542e-05,0.0,0 STARLINK-3398,1 51120U 22005S   24212.83505435  .00001542  00000-0  11493-3 0  9995,2 51120  53.2172  43.6237 0001069  94.2258 265.8857 15.08841776140285,6917.875,95.437,540.479,539.0,0.0
51120.0,STARLINK-3398,PAYLOAD,2024-07-31 05:34:46,15.08854111,0.0001151,53.2181,41.837,89.167,270.9454,0.00019785,2.864e-05,0.0,0 STARLINK-3398,1 51120U 22005S   24213.23248428  .00002864  00000-0  19785-3 0  9996,2 51120  53.2181  41.8370 0001151  89.1670 270.9454 15.08854111141453,6917.837,95.437,540.499,538.906,0.0
51120.0,STARLINK-3398,PAYLOAD,2024-07-31 19:53:16,15.08833589,0.0001317,53.2177,39.1629,78.0727,282.0412,-1.3896e-05,-5.09e-06,0.0,0 STARLINK-3398,1 51120U 22005S   24213.82865772 -.00000509  00000-0 -13896-4 0  9992,2 51120  53.2177  39.1629 0001317  78.0727 282.0412 15.08833589141543,6917.9,95.438,540.676,538.854,0.0
51120.0,STARLINK-3398,PAYLOAD,2024-08-01 21:19:25,15.08858335,0.0001459,53.2171,34.4036,67.1244,292.9902,0.00064016,9.92e-05,0.0,0 STARLINK-3398,1 51120U 22005S   24214.88849087  .00009920  00000-0  64016-3 0  9993,2 51120  53.2171  34.4036 0001459  67.1244 292.9902 15.08858335141705,6917.824,95.436,540.699,538.68,0.0
51120.0,STARLINK-3398,PAYLOAD,2024-08-02 11:37:54,15.08824407,0.0001177,53.2164,31.728,84.4221,275.6905,-0.00079907,-0.00012977,0.0,0 STARLINK-3398,1 51120U 22005S   24215.48465430 -.00012977  00000-0 -79907-3 0  9999,2 51120  53.2164  31.7280 0001177  84.4221 275.6905 15.08824407141795,6917.928,95.439,540.607,538.979,0.0
51120.0,STARLINK-3398,PAYLOAD,2024-08-02 17:59:26,15.08831481,0.000131,53.2161,30.5396,83.0825,277.0316,-0.00015759,-2.794e-05,0.0,0 STARLINK-3398,1 51120U 22005S   24215.74961605 -.00002794  00000-0 -15759-3 0  9994,2 51120  53.2161  30.5396 0001310  83.0825 277.0316 15.08831481141838,6917.906,95.438,540.678,538.865,0.0
51120.0,STARLINK-3398,PAYLOAD,2024-08-02 21:10:13,15.08838065,0.000142,53.216,29.9445,85.0343,275.0811,0.00035385,5.348e-05,0.0,0 STARLINK-3398,1 51120U 22005S   24215.88209675  .00005348  00000-0  35385-3 0  9994,2 51120  53.2160  29.9445 0001420  85.0343 275.0811 15.08838065140745,6917.886,95.438,540.734,538.769,0.0
51120.0,STARLINK-3398,PAYLOAD,2024-08-03 05:07:09,15.08844095,0.0001429,53.216,28.4577,86.1865,273.9291,0.0010838,0.00017005,0.0,0 STARLINK-3398,1 51120U 22005S   24216.21329900  .00017005  00000-0  10838-2 0  9994,2 51120  53.2160  28.4577 0001429  86.1865 273.9291 15.08844095141903,6917.868,95.437,540.721,538.744,0.0
51120.0,STARLINK-3398,PAYLOAD,2024-08-03 21:01:00,15.0886101,0.0001545,53.217,25.4835,93.3213,266.7956,0.0012707,0.00020005,0.0,0 STARLINK-3398,1 51120U 22005S   24216.87569798  .00020005  00000-0  12707-2 0  9998,2 51120  53.2170  25.4835 0001545  93.3213 266.7956 15.08861010140895,6917.816,95.436,540.75,538.612,0.0
51120.0,STARLINK-3398,PAYLOAD,2024-08-04 04:57:55,15.08869237,0.000154,53.217,23.9963,92.9733,267.1435,0.0011527,0.00018119,0.0,0 STARLINK-3398,1 51120U 22005S   24217.20689303  .00018119  00000-0  11527-2 0  9993,2 51120  53.2170  23.9963 0001540  92.9733 267.1435 15.08869237142053,6917.791,95.436,540.721,538.591,0.0
51120.0,STARLINK-3398,PAYLOAD,2024-08-04 11:19:28,15.08867078,0.0002883,53.2173,22.8077,92.8532,267.2791,0.00099467,0.0001559,0.0,0 STARLINK-3398,1 51120U 22005S   24217.47185628  .00015590  00000-0  99467-3 0  9993,2 51120  53.2173  22.8077 0002883  92.8532 267.2791 15.08867078142098,6917.798,95.436,541.657,537.668,0.0
